<?xml version="1.0" encoding="UTF-8"?>
<gpx version="1.1" creator="Marando" xmlns="http://www.topografix.com/GPX/1/1">
<wpt lat="49.5833007" lon="0.2141791"><ele>0</ele><name>Départ</name><desc>Regroupement des randonneurs autour d'un café</desc></wpt>
<wpt lat="49.583366832736765" lon="0.21539063543061235"><ele>0</ele><name>Ancien chemin de fer Le Havre Fécamp</name><desc>Cet ancien tracé ferroviaire témoigne d’une époque où le chemin de fer constituait un vecteur essentiel du développement économique et des échanges entre les villes littorales normandes. La ligne reliant Le Havre à Fécamp, mise en service en 1895, desservait plusieurs communes du pays de Caux, facilitant notamment le transport des voyageurs et des marchandises. Son parcours, aujourd’hui en partie reconverti en chemin de randonnée, conserve la mémoire de cette infrastructure disparue. Les talus, déblais et ouvrages d’art encore visibles permettent de lire dans le paysage les traces de cette anc</desc></wpt>
<wpt lat="49.581391304712405" lon="0.21804808734609438"><ele>90</ele><name>Rue Petitpas</name><link href="audio/2026_10_04_10_33_13_1_maisons_li_es_au_chemin_de_fer.mp3"><text>Audio</text></link></wpt>
<wpt lat="49.58043829252441" lon="0.21900513159518467"><ele>95</ele><name>Anciennes fermes</name><link href="audio/2026_10_04_10_35_37_1_anciennes_fermes.mp3"><text>Audio</text></link></wpt>
<wpt lat="49.5803356" lon="0.2201795"><ele>0</ele><name>sapin de Douglas (Pseudotsuga menziesii)</name><desc>Le sapin de Douglas (Pseudotsuga menziesii), originaire d'Amérique du Nord, est un résineux majeur des forêts françaises. Introduit au XIXᵉ siècle, il se distingue par sa croissance rapide et son bois aux propriétés mécaniques exceptionnelles. Utilisé en charpente et en bardage, il résiste naturellement aux champignons après séchage. Son écorce épaisse et crevassée, tout comme ses aiguilles souples dégageant une odeur de citronnelle au froissement, le rendent facilement identifiable. Il joue un rôle économique clé dans le reboisement.</desc><link href="audio/2026_10_04_10_39_31_1_vestiaires.mp3"><text>Audio</text></link></wpt>
<wpt lat="49.581488691771" lon="0.22067674655375852"><ele>0</ele><name>Lotissement des chataigniers Rolleville</name><desc>Origine du site : Le secteur tire son nom de la présence historique de boisements ou d'anciens vergers et châtaigneraies qui bordaient les coteaux du plateau cauchois.

Phase d'aménagement : Dans le cadre des politiques d'accession à la propriété individuelle (favorisées par l'extension du réseau routier et la périurbanisation des années 1970–1990), ces parcelles agricoles et naturelles sont ouvertes à l'urbanisation.

Typologie bâti : Le lotissement adopte le modèle pavillonnaire typique de cette époque : des maisons individuelles implantées au centre de parcelles closes.</desc></wpt>
<wpt lat="49.5821329" lon="0.2196418"><ele>0</ele><name>Herbe de la Pampa</name><desc>L'herbe de la Pampa (Cortaderia selloana) et la renommée Renouée du Japon figurent parmi les espèces exotiques envahissantes les plus redoutables. Comme la Renouée, l'herbe de la Pampa colonise agressivement les milieux, étouffe la flore locale et appauvrit la biodiversité. Si la Renouée prolifère par ses rhizomes souterrains, l'herbe de la Pampa se disperse par le vent grâce aux milliers de graines produites par ses plumeaux. Désormais interdite à la vente et au transport en France, son éradication exige un arrachage méticuleux avant floraison.   </desc></wpt>
<wpt lat="49.5817378" lon="0.2154761"><ele>0</ele><name>Ancienne Gare</name><desc>L'ancienne gare de Rolleville, inaugurée en 1896 sur la ligne Le Havre-Graville à Tourville-les-Ifs, témoigne de l'essor ferroviaire de la vallée de la Lézarde au tournant du XXᵉ siècle. Terminus historique du service suburbain de l'agglomération havraise, le site a vu circuler ses derniers trains en septembre 2024. Si les voies sont aujourd'hui désaffectées dans l'attente des mutations de la mobilité régionale, l'ancien bâtiment voyageurs d'origine en briques a été reconverti en groupe scolaire, préservant ainsi le patrimoine bâti et la mémoire ferroviaire de la commune.</desc><link href="audio/2026_10_04_10_54_07_1_gare_rolleville.mp3"><text>Audio</text></link></wpt>
<wpt lat="49.5807997" lon="0.2160247"><ele>0</ele><name>L'école</name><desc>Inauguré en 2023, le nouveau groupe scolaire de Rolleville s'inscrit au cœur du patrimoine de la commune en investissant l'ancienne gare de la vallée de la Lézarde. Ce projet d'aménagement réhabilite le bâtiment voyageurs historique en briques tout en lui adossant une extension contemporaine, moderne et durable. Conçue pour offrir des espaces d'apprentissage lumineux et fonctionnels, l'école regroupe désormais les classes maternelles et élémentaires. Elle illustre une reconversion réussie du patrimoine ferroviaire au service de la vie locale.</desc><link href="audio/2026_10_04_11_02_25_1_arbres__cole.mp3"><text>Audio</text></link></wpt>
<wpt lat="49.5815345" lon="0.2137402"><ele>0</ele><name>Passerelle sur la Lézarde</name><desc>La Lézarde, rivière côtière emblématique de la Seine-Maritime, façonne profondément la géographie et le paysage de Rolleville. Traversant la commune du nord au sud, ce cours d'eau a historiquement structuré le développement local, alimentant d'anciens moulins et irriguant les fonds de vallée. Aujourd'hui, la rivière et ses berges constituent un corridor écologique majeur pour la faune et la flore aquatiques du Pays de Caux. Menacée par le ruissellement, La Lézarde fait l'objet de démarches de préservation pour restaurer sa continuité écologique.</desc><link href="audio/2026_10_04_11_04_34_1_prairie_inondable.mp3"><text>Audio</text></link></wpt>
<wpt lat="49.58159129578316" lon="0.21326732134509643"><ele>0</ele><name>Repère</name><link href="audio/2026_10_04_11_08_51_1_coupe_de_la_prairie.mp3"><text>Audio</text></link></wpt>
<wpt lat="49.58141391243975" lon="0.21381702446663825"><ele>83</ele><name>Future construction</name><link href="audio/2026_10_04_11_10_28_1_logements.mp3"><text>Audio</text></link></wpt>
<wpt lat="49.58167303102829" lon="0.21313057496443744"><ele>0</ele><name>Chapelle Sainte Clothilde</name><desc>Édifiée au-dessus d'une source autrefois vénérée, la chapelle Sainte-Clotilde de Rolleville témoigne de la dévotion populaire normande, attestée dès le XVIIᵉ siècle. Pendant plusieurs siècles et jusque dans les années 1950, le site attirait de nombreux pèlerins venus chercher la guérison de leurs maux, notamment les affections cutanées, en s'humectant de cette eau réputée miraculeuse. Ce modeste édifice en briques, niché dans la verdure, conserve la mémoire de ces rituels thérapeutiques sacrés, constituant une halte patrimoniale emblématique de la vallée.</desc><link href="audio/2026_10_04_11_18_49_1_fontaine_ste_clotilde.mp3"><text>Audio</text></link></wpt>
<wpt lat="49.5818374" lon="0.2129855"><ele>0</ele><name>Statue de Sainte Clothilde</name><desc>La statue représente sainte Clotilde (v. 474–545), reine des Francs et épouse de Clovis.Elle est reconnaissable à ses attributs traditionnels :La couronne royale : rappelant son rang de reine des Francs.La maquette d'église ou de chapelle : portée dans sa main, elle symbolise son rôle de fondatrice d'édifices religieux et son action majeure dans la conversion de Clovis au christianisme.</desc><link href="audio/2026_10_04_11_23_32_1_statue_ste_clotilde.mp3"><text>Audio</text></link></wpt>
<wpt lat="49.5818374" lon="0.2129855"><ele>0</ele><name>Statue de Sainte Clothilde</name><desc>Ancré autour d'une source réputée guérisseuse, le pèlerinage à Sainte-Clotilde de Rolleville remonte à plusieurs siècles. Chaque 3 juin, jour de la sainte, les pèlerins du Pays de Caux et du Havre s'y rassemblaient pour soigner maux de peau et affections oculaires grâce aux vertus attribuées à l'eau. L'érection de la chapelle-fontaine à la fin du XIXᵉ siècle a structuré ces dévotions rituelles. Bien que tombé en désuétude au milieu du XXᵉ siècle face aux progrès de la médecine, ce site reste un haut lieu de la mémoire et du patrimoine local.</desc></wpt>
<wpt lat="49.5821088" lon="0.212436"><ele>0</ele><name>L'église</name><desc>Édifiée au XIᵉ siècle puis remaniée aux XVIᵉ et XIXᵉ siècles, l'église Saint-Hilaire de Rolleville se distingue par son chœur roman remarquable et son clocher à charpente d'inspiration cauchoise. Longtemps au cœur des dévotions locales, l'édifice conservait une statuaire variée ainsi que des liens étroits avec la source Sainte-Clotilde toute proche. Sa proximité avec la Lézarde en faisait le point de ralliement des processions paroissiales. Malgré les destructions partielles et les rénovations, elle demeure l'un des plus anciens éléments du patrimoine bâti de la commune.</desc><link href="audio/2026_10_04_11_29_28_1_porche__glise.mp3"><text>Audio</text></link></wpt>
<wpt lat="49.5814702" lon="0.2122675"><ele>0</ele><name>Repère</name><link href="audio/2026_10_04_11_33_29_1_mairie_presbyt_re.mp3"><text>Audio</text></link></wpt>
<wpt lat="49.58138569999999" lon="0.2123239"><ele>0</ele><name>Le manoir des Abbesses</name><desc>Le Manoir des Abbesses à Rolleville témoigne de l'empreinte monastique dans la vallée de la Lézarde sous l'Ancien Régime. Lié à l'abbaye de Montivilliers, ce domaine servait de résidence seigneuriale et de centre de perception des dîmes pour les religieuses. Son architecture cauchoise traditionnelle mêle harmonieusement silex, brique et pan de bois, reflétant la prospérité agricole du Pays de Caux. Épargné par les mutations industrielles du secteur, ce remarquable ensemble patrimonial privé conserve aujourd'hui toute sa valeur mémorielle et paysagère.</desc><link href="audio/2026_10_04_11_37_02_1_manoir.mp3"><text>Audio</text></link></wpt>
<wpt lat="49.5812067" lon="0.2120701"><ele>0</ele><name>La cour du manoir</name><desc>Le Manoir des Abbesses à Rolleville servait principalement de résidence de villégiature et de centre de gestion domaniale pour les moniales de la prestigieuse abbaye de Montivilliers. Au XVIᵉ siècle, l'abbesse Guillemette de La Platière y établit une maison de campagne pour s'éloigner de la rigueur monastique. Idéalement situé dans la vallée de la Lézarde, ce domaine permettait aussi aux religieuses d'administrer leurs terres agricoles, de percevoir la dîme et d'affirmer leur autorité seigneuriale sur la paroisse.</desc></wpt>
<wpt lat="49.5811255" lon="0.2098233"><ele>0</ele><name>Le Petit Manoir</name><link href="audio/2026_10_04_11_43_25_1_petit_manoir.mp3"><text>Audio</text></link></wpt>
<wpt lat="49.581482" lon="0.2101509"><ele>0</ele><name>L'ancienne école</name><desc>L'ancienne école communale de Rolleville, édifiée en briques au début du XXᵉ siècle, a longtemps vibré au rythme des générations d'écoliers du village. Remplacée par le nouveau groupe scolaire aménagé dans l'ancienne gare, la bâtisse n'a pas perdu sa vocation d'accueil. Métamorphosée après une ambitieuse rénovation patrimoniale, elle a été reconvertie en chambre d'hôtes. Ce changement d'usage réussit le pari de préserver l'architecture républicaine d'origine tout en offrant une halte chaleureuse aux touristes et randonneurs de la vallée.</desc><link href="audio/2026_10_04_11_44_56_1_ecole_blockhaus.mp3"><text>Audio</text></link></wpt>
<wpt lat="49.5830136" lon="0.2097479"><ele>0</ele><name>En chemin</name><desc>La rue principale du village porte le nom de Charles Barbanchon en hommage à cet ancien maire de Rolleville, qui a dirigé la commune au sortir de la Seconde Guerre mondiale, de 1945 à 1958.   Il s'agit d'une pratique courante pour honorer la mémoire de l'édile qui a accompagné le village durant la période cruciale de la Reconstruction et du développement d'après-guerre. </desc><link href="audio/2026_10_04_11_48_50_1_parking_ancienne_ecole.mp3"><text>Audio</text></link></wpt>
<wpt lat="49.58392140000001" lon="0.2090294"><ele>0</ele><name>Abélia à grandes fleurs</name><desc>La haie d'Abélia à grandes fleurs (Abelia x grandiflora) séduit par sa longue floraison estivale et automnale. De juillet aux gelées, ses clochettes parfumées, blanches à rose pâle, attirent abeilles et papillons. Son feuillage dense, vert luisant et semi-persistant, prend de belles nuances pourpres à l'automne tout en offrant une protection visuelle agréable. Facile d'entretien, rustique et tolérant bien la taille, cet arbuste mellifère s'adapte à tous les sols drainés et supporte la sécheresse une fois bien installé au soleil.</desc></wpt>
<wpt lat="49.5843631" lon="0.209437"><ele>0</ele><name>Lotissement</name><link href="audio/2026_10_04_11_59_41_1_lotissement_ex_jean_vanier.mp3"><text>Audio</text></link></wpt>
<wpt lat="49.5867567" lon="0.2121683"><ele>0</ele><name>Entrée du Parc du Moulin</name><desc>Le parc du Moulin, à Rolleville, s’inscrit dans un paysage façonné par la présence de l’eau et l’histoire rurale de la vallée de la Lézarde. Cet espace de verdure évoque l’importance des moulins, autrefois nombreux dans les campagnes normandes, où l’énergie hydraulique permettait notamment de moudre les céréales. La proximité du cours d’eau, la végétation des berges et les perspectives paysagères composent un environnement propice à la promenade. Au-delà de son agrément, ce parc rappelle combien les activités humaines ont longtemps entretenu une relation étroite avec les ressources naturelles </desc></wpt>
<wpt lat="49.5856444" lon="0.2124977"><ele>0</ele><name>Etang du Moulin</name><desc>Nés du creusement des ballastières au XXᵉ siècle et de l'aménagement des anciens biefs de moulins, les étangs de la vallée de la Lézarde, entre Rolleville et Épouville, sont le fruit du travail humain. Alimentées par la nappe phréatique et la rivière, ces anciennes carrières de granulats ont été reconverties en un vaste corridor écologique. Aujourd'hui, ce réseau de plans d'eau constitue une zone humide protégée essentielle pour la biodiversité, tout en offrant aux pêcheurs et promeneurs un cadre naturel préservé au cœur du Pays de Caux.</desc></wpt>
<wpt lat="49.58327600000001" lon="0.2142353"><ele>0</ele><name>Le Moulin</name><desc>La vallée de la Lézarde fut longtemps un important centre de meunerie, grâce à la force motrice de ses eaux. Au Moyen Âge, six moulins sont attestés à Rolleville, sous le contrôle de l’abbaye de Montivilliers. Ils servaient principalement à moudre le grain, mais aussi à transformer d’autres matières. Parmi les établissements connus figure le moulin de Baude, datant du XVIIe siècle, dont le nom provient de l’ancien cauchois baödes, signifiant « moulin des braves ». Le moulin Alleaume, également appelé moulin de Rolleville, fut successivement moulin à blé, brûlerie de café puis laiterie. </desc></wpt>
<trk><name>RandoRolleville</name><trkseg>
<trkpt lat="49.5832338" lon="0.2140824"><ele>83</ele></trkpt>
<trkpt lat="49.5833007" lon="0.2141791"><ele>83</ele></trkpt>
<trkpt lat="49.5832767" lon="0.2142396"><ele>83</ele></trkpt>
<trkpt lat="49.58331999999999" lon="0.2142017"><ele>83</ele></trkpt>
<trkpt lat="49.583275" lon="0.2142467"><ele>83</ele></trkpt>
<trkpt lat="49.5832483" lon="0.2143033"><ele>83</ele></trkpt>
<trkpt lat="49.58320500000001" lon="0.2143283"><ele>83</ele></trkpt>
<trkpt lat="49.5831617" lon="0.2143585"><ele>83</ele></trkpt>
<trkpt lat="49.58314080000001" lon="0.2144253"><ele>83</ele></trkpt>
<trkpt lat="49.58312169999999" lon="0.2144916"><ele>82</ele></trkpt>
<trkpt lat="49.5831299" lon="0.2145619"><ele>83</ele></trkpt>
<trkpt lat="49.5831343" lon="0.2146364"><ele>82</ele></trkpt>
<trkpt lat="49.5831581" lon="0.2146972"><ele>82</ele></trkpt>
<trkpt lat="49.583201" lon="0.2147198"><ele>82</ele></trkpt>
<trkpt lat="49.5832479" lon="0.2147394"><ele>82</ele></trkpt>
<trkpt lat="49.5832925" lon="0.2147633"><ele>83</ele></trkpt>
<trkpt lat="49.5833404" lon="0.2147933"><ele>82</ele></trkpt>
<trkpt lat="49.583378" lon="0.2148342"><ele>82</ele></trkpt>
<trkpt lat="49.5834185" lon="0.2148659"><ele>83</ele></trkpt>
<trkpt lat="49.5834581" lon="0.2149034"><ele>84</ele></trkpt>
<trkpt lat="49.5835059" lon="0.2149195"><ele>84</ele></trkpt>
<trkpt lat="49.5835513" lon="0.2149332"><ele>83</ele></trkpt>
<trkpt lat="49.5835965" lon="0.2149505"><ele>83</ele></trkpt>
<trkpt lat="49.5836431" lon="0.2149491"><ele>86</ele></trkpt>
<trkpt lat="49.5836902" lon="0.2149384"><ele>86</ele></trkpt>
<trkpt lat="49.58373019999999" lon="0.2149798"><ele>82</ele></trkpt>
<trkpt lat="49.5837508" lon="0.2150431"><ele>86</ele></trkpt>
<trkpt lat="49.5837554" lon="0.2151126"><ele>86</ele></trkpt>
<trkpt lat="49.5837625" lon="0.2151843"><ele>86</ele></trkpt>
<trkpt lat="49.5837138" lon="0.2151709"><ele>82</ele></trkpt>
<trkpt lat="49.5836681" lon="0.2151929"><ele>82</ele></trkpt>
<trkpt lat="49.58362180000001" lon="0.2152195"><ele>82</ele></trkpt>
<trkpt lat="49.58358310000001" lon="0.2152596"><ele>84</ele></trkpt>
<trkpt lat="49.5835373" lon="0.2152769"><ele>84</ele></trkpt>
<trkpt lat="49.583493" lon="0.2152986"><ele>91</ele></trkpt>
<trkpt lat="49.58344809999999" lon="0.2153059"><ele>91</ele></trkpt>
<trkpt lat="49.5834023" lon="0.2153308"><ele>91</ele></trkpt>
<trkpt lat="49.5833587" lon="0.2153533"><ele>91</ele></trkpt>
<trkpt lat="49.5833145" lon="0.2153881"><ele>91</ele></trkpt>
<trkpt lat="49.5832639" lon="0.2153866"><ele>84</ele></trkpt>
<trkpt lat="49.5832169" lon="0.215398"><ele>84</ele></trkpt>
<trkpt lat="49.58316780000001" lon="0.2154189"><ele>82</ele></trkpt>
<trkpt lat="49.58312169999999" lon="0.2154217"><ele>83</ele></trkpt>
<trkpt lat="49.5830787" lon="0.215452"><ele>84</ele></trkpt>
<trkpt lat="49.5830345" lon="0.2154722"><ele>84</ele></trkpt>
<trkpt lat="49.5829876" lon="0.215473"><ele>84</ele></trkpt>
<trkpt lat="49.58294100000001" lon="0.2154865"><ele>84</ele></trkpt>
<trkpt lat="49.5828963" lon="0.2155162"><ele>84</ele></trkpt>
<trkpt lat="49.5828498" lon="0.2155086"><ele>84</ele></trkpt>
<trkpt lat="49.5828033" lon="0.2155103"><ele>84</ele></trkpt>
<trkpt lat="49.5827554" lon="0.2155365"><ele>84</ele></trkpt>
<trkpt lat="49.58271589999999" lon="0.2155845"><ele>84</ele></trkpt>
<trkpt lat="49.5826804" lon="0.2156291"><ele>84</ele></trkpt>
<trkpt lat="49.5826351" lon="0.2156499"><ele>84</ele></trkpt>
<trkpt lat="49.582593" lon="0.2156831"><ele>83</ele></trkpt>
<trkpt lat="49.5825478" lon="0.2157055"><ele>84</ele></trkpt>
<trkpt lat="49.582498" lon="0.2157142"><ele>84</ele></trkpt>
<trkpt lat="49.5824538" lon="0.2157425"><ele>83</ele></trkpt>
<trkpt lat="49.5824293" lon="0.2158011"><ele>83</ele></trkpt>
<trkpt lat="49.58241810000001" lon="0.2158713"><ele>84</ele></trkpt>
<trkpt lat="49.58239819999999" lon="0.2159359"><ele>84</ele></trkpt>
<trkpt lat="49.5823737" lon="0.2159958"><ele>84</ele></trkpt>
<trkpt lat="49.5823617" lon="0.2160673"><ele>86</ele></trkpt>
<trkpt lat="49.5823403" lon="0.2161331"><ele>86</ele></trkpt>
<trkpt lat="49.5823172" lon="0.216267"><ele>85</ele></trkpt>
<trkpt lat="49.58228429999999" lon="0.2163993"><ele>85</ele></trkpt>
<trkpt lat="49.5822561" lon="0.2164613"><ele>85</ele></trkpt>
<trkpt lat="49.58224449999999" lon="0.2165306"><ele>86</ele></trkpt>
<trkpt lat="49.58224" lon="0.2166095"><ele>86</ele></trkpt>
<trkpt lat="49.5822367" lon="0.2166811"><ele>86</ele></trkpt>
<trkpt lat="49.5822189" lon="0.2167529"><ele>86</ele></trkpt>
<trkpt lat="49.5822106" lon="0.216824"><ele>86</ele></trkpt>
<trkpt lat="49.5821914" lon="0.2168898"><ele>89</ele></trkpt>
<trkpt lat="49.582178" lon="0.2169635"><ele>89</ele></trkpt>
<trkpt lat="49.5821497" lon="0.2170217"><ele>89</ele></trkpt>
<trkpt lat="49.58211489999999" lon="0.2170756"><ele>89</ele></trkpt>
<trkpt lat="49.58207660000001" lon="0.2171172"><ele>89</ele></trkpt>
<trkpt lat="49.5820485" lon="0.2171747"><ele>89</ele></trkpt>
<trkpt lat="49.58201240000001" lon="0.2172228"><ele>89</ele></trkpt>
<trkpt lat="49.5819715" lon="0.2172612"><ele>89</ele></trkpt>
<trkpt lat="49.5819296" lon="0.2172989"><ele>89</ele></trkpt>
<trkpt lat="49.5818892" lon="0.2173416"><ele>89</ele></trkpt>
<trkpt lat="49.58184920000001" lon="0.2173896"><ele>89</ele></trkpt>
<trkpt lat="49.5818154" lon="0.217442"><ele>89</ele></trkpt>
<trkpt lat="49.58178110000001" lon="0.2174964"><ele>89</ele></trkpt>
<trkpt lat="49.5817411" lon="0.2175391"><ele>89</ele></trkpt>
<trkpt lat="49.5817003" lon="0.2175764"><ele>89</ele></trkpt>
<trkpt lat="49.581661" lon="0.2176159"><ele>89</ele></trkpt>
<trkpt lat="49.5816191" lon="0.2176424"><ele>89</ele></trkpt>
<trkpt lat="49.58157449999999" lon="0.217678"><ele>89</ele></trkpt>
<trkpt lat="49.5815386" lon="0.217725"><ele>89</ele></trkpt>
<trkpt lat="49.5815006" lon="0.2177725"><ele>89</ele></trkpt>
<trkpt lat="49.5814781" lon="0.2178386"><ele>90</ele></trkpt>
<trkpt lat="49.581444" lon="0.2178883"><ele>90</ele></trkpt>
<trkpt lat="49.58140950000001" lon="0.217935"><ele>90</ele></trkpt>
<trkpt lat="49.5813716" lon="0.2179739"><ele>90</ele></trkpt>
<trkpt lat="49.5813324" lon="0.2180184"><ele>90</ele></trkpt>
<trkpt lat="49.5812937" lon="0.2180562"><ele>90</ele></trkpt>
<trkpt lat="49.5812549" lon="0.2180926"><ele>90</ele></trkpt>
<trkpt lat="49.5812208" lon="0.2181407"><ele>90</ele></trkpt>
<trkpt lat="49.581181" lon="0.2181813"><ele>90</ele></trkpt>
<trkpt lat="49.5811448" lon="0.2182286"><ele>92</ele></trkpt>
<trkpt lat="49.5811039" lon="0.2182705"><ele>94</ele></trkpt>
<trkpt lat="49.5810689" lon="0.2183258"><ele>90</ele></trkpt>
<trkpt lat="49.5810316" lon="0.2183768"><ele>94</ele></trkpt>
<trkpt lat="49.58099720000001" lon="0.2184302"><ele>94</ele></trkpt>
<trkpt lat="49.58095980000001" lon="0.2184793"><ele>96</ele></trkpt>
<trkpt lat="49.58091629999999" lon="0.2185045"><ele>94</ele></trkpt>
<trkpt lat="49.5808782" lon="0.2185418"><ele>94</ele></trkpt>
<trkpt lat="49.5808427" lon="0.2185901"><ele>98.00000000000001</ele></trkpt>
<trkpt lat="49.5808068" lon="0.2186349"><ele>98.00000000000001</ele></trkpt>
<trkpt lat="49.5807648" lon="0.2186697"><ele>98.00000000000001</ele></trkpt>
<trkpt lat="49.5807298" lon="0.2187232"><ele>98.00000000000001</ele></trkpt>
<trkpt lat="49.58069190000001" lon="0.2187618"><ele>95</ele></trkpt>
<trkpt lat="49.5806487" lon="0.2187827"><ele>95</ele></trkpt>
<trkpt lat="49.5806048" lon="0.2188152"><ele>95</ele></trkpt>
<trkpt lat="49.5805646" lon="0.2188626"><ele>95</ele></trkpt>
<trkpt lat="49.5805233" lon="0.2188954"><ele>95</ele></trkpt>
<trkpt lat="49.5804789" lon="0.218928"><ele>95</ele></trkpt>
<trkpt lat="49.5804399" lon="0.2189639"><ele>95</ele></trkpt>
<trkpt lat="49.5804002" lon="0.2190036"><ele>95</ele></trkpt>
<trkpt lat="49.5803642" lon="0.2190521"><ele>95</ele></trkpt>
<trkpt lat="49.5803267" lon="0.219102"><ele>91</ele></trkpt>
<trkpt lat="49.5802949" lon="0.2191533"><ele>95</ele></trkpt>
<trkpt lat="49.5802655" lon="0.2192087"><ele>95</ele></trkpt>
<trkpt lat="49.58023879999999" lon="0.2192661"><ele>99.00000000000001</ele></trkpt>
<trkpt lat="49.580203" lon="0.2193091"><ele>99.00000000000001</ele></trkpt>
<trkpt lat="49.58016659999999" lon="0.2193511"><ele>99.00000000000001</ele></trkpt>
<trkpt lat="49.5801242" lon="0.219384"><ele>99.00000000000001</ele></trkpt>
<trkpt lat="49.5800939" lon="0.2194364"><ele>96</ele></trkpt>
<trkpt lat="49.5800848" lon="0.2195053"><ele>96</ele></trkpt>
<trkpt lat="49.5800824" lon="0.2195766"><ele>97</ele></trkpt>
<trkpt lat="49.58010659999999" lon="0.2196371"><ele>99.00000000000001</ele></trkpt>
<trkpt lat="49.5801284" lon="0.2197076"><ele>99.00000000000001</ele></trkpt>
<trkpt lat="49.5801605" lon="0.2197571"><ele>99.00000000000001</ele></trkpt>
<trkpt lat="49.5801802" lon="0.2198214"><ele>97</ele></trkpt>
<trkpt lat="49.5802138" lon="0.2198783"><ele>97</ele></trkpt>
<trkpt lat="49.580239" lon="0.219939"><ele>97</ele></trkpt>
<trkpt lat="49.5802605" lon="0.2200041"><ele>97</ele></trkpt>
<trkpt lat="49.5802776" lon="0.2200687"><ele>97</ele></trkpt>
<trkpt lat="49.5803048" lon="0.2201287"><ele>97</ele></trkpt>
<trkpt lat="49.5803356" lon="0.2201795"><ele>97</ele></trkpt>
<trkpt lat="49.5803529" lon="0.2202504"><ele>97</ele></trkpt>
<trkpt lat="49.5803648" lon="0.220326"><ele>97</ele></trkpt>
<trkpt lat="49.5803853" lon="0.2203974"><ele>97</ele></trkpt>
<trkpt lat="49.5804135" lon="0.2204612"><ele>97</ele></trkpt>
<trkpt lat="49.5804529" lon="0.2205057"><ele>97</ele></trkpt>
<trkpt lat="49.5805024" lon="0.2205008"><ele>97</ele></trkpt>
<trkpt lat="49.5805507" lon="0.2204641"><ele>97</ele></trkpt>
<trkpt lat="49.58059650000001" lon="0.2204341"><ele>97</ele></trkpt>
<trkpt lat="49.58063989999999" lon="0.2204021"><ele>97</ele></trkpt>
<trkpt lat="49.5806861" lon="0.2203851"><ele>97</ele></trkpt>
<trkpt lat="49.5807299" lon="0.2203668"><ele>97</ele></trkpt>
<trkpt lat="49.5807762" lon="0.2203808"><ele>97</ele></trkpt>
<trkpt lat="49.58082450000001" lon="0.2203805"><ele>97</ele></trkpt>
<trkpt lat="49.5808698" lon="0.2203759"><ele>97</ele></trkpt>
<trkpt lat="49.5809142" lon="0.2203911"><ele>99.00000000000001</ele></trkpt>
<trkpt lat="49.5809503" lon="0.2204326"><ele>99.00000000000001</ele></trkpt>
<trkpt lat="49.5809956" lon="0.2204632"><ele>99.00000000000001</ele></trkpt>
<trkpt lat="49.5810395" lon="0.2204861"><ele>103</ele></trkpt>
<trkpt lat="49.5810818" lon="0.2205114"><ele>104</ele></trkpt>
<trkpt lat="49.58112289999999" lon="0.2204824"><ele>104</ele></trkpt>
<trkpt lat="49.5811452" lon="0.2205474"><ele>103</ele></trkpt>
<trkpt lat="49.5811838" lon="0.2205847"><ele>99.00000000000001</ele></trkpt>
<trkpt lat="49.5812255" lon="0.2206259"><ele>103</ele></trkpt>
<trkpt lat="49.5812689" lon="0.2206595"><ele>103</ele></trkpt>
<trkpt lat="49.5813136" lon="0.2206713"><ele>102</ele></trkpt>
<trkpt lat="49.5813612" lon="0.2206807"><ele>104</ele></trkpt>
<trkpt lat="49.581406" lon="0.2206658"><ele>104</ele></trkpt>
<trkpt lat="49.5814513" lon="0.2206558"><ele>104</ele></trkpt>
<trkpt lat="49.5814949" lon="0.2206355"><ele>102</ele></trkpt>
<trkpt lat="49.58153110000001" lon="0.2205843"><ele>105</ele></trkpt>
<trkpt lat="49.58157589999999" lon="0.2205566"><ele>104</ele></trkpt>
<trkpt lat="49.5816035" lon="0.2204951"><ele>104</ele></trkpt>
<trkpt lat="49.58165379999999" lon="0.220473"><ele>105</ele></trkpt>
<trkpt lat="49.5816919" lon="0.2204358"><ele>105</ele></trkpt>
<trkpt lat="49.58173109999999" lon="0.2203983"><ele>105</ele></trkpt>
<trkpt lat="49.5817785" lon="0.2204041"><ele>105</ele></trkpt>
<trkpt lat="49.5818251" lon="0.2203941"><ele>105</ele></trkpt>
<trkpt lat="49.5818707" lon="0.2204"><ele>105</ele></trkpt>
<trkpt lat="49.5819182" lon="0.2203855"><ele>105</ele></trkpt>
<trkpt lat="49.5819581" lon="0.2203432"><ele>105</ele></trkpt>
<trkpt lat="49.5819968" lon="0.2203043"><ele>105</ele></trkpt>
<trkpt lat="49.58204120000001" lon="0.2202688"><ele>105</ele></trkpt>
<trkpt lat="49.5820829" lon="0.2202373"><ele>105</ele></trkpt>
<trkpt lat="49.5821239" lon="0.2202058"><ele>109</ele></trkpt>
<trkpt lat="49.5821544" lon="0.2201515"><ele>109</ele></trkpt>
<trkpt lat="49.58213720000001" lon="0.2200865"><ele>105</ele></trkpt>
<trkpt lat="49.58212180000001" lon="0.2200193"><ele>105</ele></trkpt>
<trkpt lat="49.58211080000001" lon="0.2199507"><ele>105</ele></trkpt>
<trkpt lat="49.58209860000001" lon="0.2198823"><ele>105</ele></trkpt>
<trkpt lat="49.582095" lon="0.2198118"><ele>105</ele></trkpt>
<trkpt lat="49.58206909999999" lon="0.2197465"><ele>105</ele></trkpt>
<trkpt lat="49.5820777" lon="0.2196745"><ele>105</ele></trkpt>
<trkpt lat="49.5820938" lon="0.2196021"><ele>105</ele></trkpt>
<trkpt lat="49.5821329" lon="0.2196418"><ele>105</ele></trkpt>
<trkpt lat="49.5821142" lon="0.2197056"><ele>105</ele></trkpt>
<trkpt lat="49.5821083" lon="0.2197752"><ele>105</ele></trkpt>
<trkpt lat="49.582107" lon="0.2197041"><ele>105</ele></trkpt>
<trkpt lat="49.58212120000001" lon="0.2196308"><ele>105</ele></trkpt>
<trkpt lat="49.5821296" lon="0.2195579"><ele>105</ele></trkpt>
<trkpt lat="49.5821353" lon="0.2194861"><ele>105</ele></trkpt>
<trkpt lat="49.5821322" lon="0.2194134"><ele>105</ele></trkpt>
<trkpt lat="49.5821303" lon="0.2193438"><ele>105</ele></trkpt>
<trkpt lat="49.5821445" lon="0.2192721"><ele>100</ele></trkpt>
<trkpt lat="49.5821681" lon="0.2192126"><ele>100</ele></trkpt>
<trkpt lat="49.5821692" lon="0.2191402"><ele>100</ele></trkpt>
<trkpt lat="49.5821664" lon="0.219068"><ele>100</ele></trkpt>
<trkpt lat="49.5821553" lon="0.218999"><ele>100</ele></trkpt>
<trkpt lat="49.58216569999999" lon="0.218931"><ele>100</ele></trkpt>
<trkpt lat="49.58218709999999" lon="0.2188645"><ele>99.00000000000001</ele></trkpt>
<trkpt lat="49.5821953" lon="0.2187865"><ele>100</ele></trkpt>
<trkpt lat="49.582201" lon="0.2187162"><ele>100</ele></trkpt>
<trkpt lat="49.5822009" lon="0.2186456"><ele>100</ele></trkpt>
<trkpt lat="49.5822031" lon="0.2185746"><ele>101</ele></trkpt>
<trkpt lat="49.58220560000001" lon="0.218504"><ele>100</ele></trkpt>
<trkpt lat="49.5822055" lon="0.2184286"><ele>100</ele></trkpt>
<trkpt lat="49.5822216" lon="0.2183582"><ele>100</ele></trkpt>
<trkpt lat="49.58223650000001" lon="0.2182899"><ele>100</ele></trkpt>
<trkpt lat="49.58224" lon="0.2182188"><ele>95</ele></trkpt>
<trkpt lat="49.5822813" lon="0.2181839"><ele>94</ele></trkpt>
<trkpt lat="49.5822631" lon="0.2181185"><ele>94</ele></trkpt>
<trkpt lat="49.5822533" lon="0.2180503"><ele>94</ele></trkpt>
<trkpt lat="49.5822604" lon="0.2179771"><ele>94</ele></trkpt>
<trkpt lat="49.58225880000001" lon="0.2179066"><ele>94</ele></trkpt>
<trkpt lat="49.58226090000001" lon="0.2178339"><ele>94</ele></trkpt>
<trkpt lat="49.5822622" lon="0.2177598"><ele>89</ele></trkpt>
<trkpt lat="49.5822872" lon="0.2176966"><ele>90</ele></trkpt>
<trkpt lat="49.5822845" lon="0.217619"><ele>85</ele></trkpt>
<trkpt lat="49.5822655" lon="0.2175535"><ele>89</ele></trkpt>
<trkpt lat="49.5822441" lon="0.2174911"><ele>89</ele></trkpt>
<trkpt lat="49.5822104" lon="0.2174375"><ele>89</ele></trkpt>
<trkpt lat="49.5821841" lon="0.217377"><ele>89</ele></trkpt>
<trkpt lat="49.58216329999999" lon="0.217313"><ele>89</ele></trkpt>
<trkpt lat="49.5821466" lon="0.2172483"><ele>89</ele></trkpt>
<trkpt lat="49.58212709999999" lon="0.2171843"><ele>89</ele></trkpt>
<trkpt lat="49.58210810000001" lon="0.2171214"><ele>89</ele></trkpt>
<trkpt lat="49.58211249999999" lon="0.2170518"><ele>89</ele></trkpt>
<trkpt lat="49.58213299999999" lon="0.2169886"><ele>86</ele></trkpt>
<trkpt lat="49.582156" lon="0.2169261"><ele>86</ele></trkpt>
<trkpt lat="49.582178" lon="0.2168592"><ele>86</ele></trkpt>
<trkpt lat="49.58218709999999" lon="0.2167844"><ele>86</ele></trkpt>
<trkpt lat="49.5822079" lon="0.2167169"><ele>86</ele></trkpt>
<trkpt lat="49.58223019999999" lon="0.2166521"><ele>86</ele></trkpt>
<trkpt lat="49.5822535" lon="0.2165927"><ele>86</ele></trkpt>
<trkpt lat="49.58226559999999" lon="0.2165192"><ele>86</ele></trkpt>
<trkpt lat="49.5822813" lon="0.2164534"><ele>85</ele></trkpt>
<trkpt lat="49.58229919999999" lon="0.2163887"><ele>85</ele></trkpt>
<trkpt lat="49.58231170000001" lon="0.2163194"><ele>85</ele></trkpt>
<trkpt lat="49.5823202" lon="0.2162471"><ele>85</ele></trkpt>
<trkpt lat="49.5823223" lon="0.2161719"><ele>86</ele></trkpt>
<trkpt lat="49.5823363" lon="0.2161021"><ele>83</ele></trkpt>
<trkpt lat="49.58236380000001" lon="0.2160426"><ele>83</ele></trkpt>
<trkpt lat="49.58238070000001" lon="0.2159762"><ele>83</ele></trkpt>
<trkpt lat="49.58240120000001" lon="0.2159079"><ele>84</ele></trkpt>
<trkpt lat="49.5824148" lon="0.215841"><ele>84</ele></trkpt>
<trkpt lat="49.5824242" lon="0.2157705"><ele>84</ele></trkpt>
<trkpt lat="49.5824368" lon="0.2156987"><ele>84</ele></trkpt>
<trkpt lat="49.5823879" lon="0.2156972"><ele>84</ele></trkpt>
<trkpt lat="49.5823421" lon="0.2157148"><ele>84</ele></trkpt>
<trkpt lat="49.5822943" lon="0.2157246"><ele>83</ele></trkpt>
<trkpt lat="49.5822489" lon="0.2157479"><ele>84</ele></trkpt>
<trkpt lat="49.582202" lon="0.2157598"><ele>84</ele></trkpt>
<trkpt lat="49.5821532" lon="0.2157623"><ele>84</ele></trkpt>
<trkpt lat="49.58210960000001" lon="0.2157795"><ele>84</ele></trkpt>
<trkpt lat="49.5820618" lon="0.2157756"><ele>84</ele></trkpt>
<trkpt lat="49.5820066" lon="0.2156654"><ele>84</ele></trkpt>
<trkpt lat="49.58198530000001" lon="0.2156029"><ele>84</ele></trkpt>
<trkpt lat="49.5819683" lon="0.2155386"><ele>84</ele></trkpt>
<trkpt lat="49.5819503" lon="0.2154684"><ele>84</ele></trkpt>
<trkpt lat="49.5819188" lon="0.2154163"><ele>84</ele></trkpt>
<trkpt lat="49.5818738" lon="0.2154176"><ele>84</ele></trkpt>
<trkpt lat="49.5818297" lon="0.2154406"><ele>83</ele></trkpt>
<trkpt lat="49.5817826" lon="0.2154627"><ele>83</ele></trkpt>
<trkpt lat="49.5817378" lon="0.2154761"><ele>82</ele></trkpt>
<trkpt lat="49.5816958" lon="0.2155066"><ele>82</ele></trkpt>
<trkpt lat="49.58165540000001" lon="0.2155392"><ele>83</ele></trkpt>
<trkpt lat="49.58160960000001" lon="0.215534"><ele>81</ele></trkpt>
<trkpt lat="49.581565" lon="0.2155478"><ele>82</ele></trkpt>
<trkpt lat="49.5815163" lon="0.2155664"><ele>81</ele></trkpt>
<trkpt lat="49.58147339999999" lon="0.2155981"><ele>81</ele></trkpt>
<trkpt lat="49.5814337" lon="0.2156333"><ele>81</ele></trkpt>
<trkpt lat="49.5813984" lon="0.2156768"><ele>81</ele></trkpt>
<trkpt lat="49.5813671" lon="0.2157302"><ele>83</ele></trkpt>
<trkpt lat="49.58133309999999" lon="0.2157811"><ele>83</ele></trkpt>
<trkpt lat="49.5812939" lon="0.2158199"><ele>83</ele></trkpt>
<trkpt lat="49.58125080000001" lon="0.2158583"><ele>81</ele></trkpt>
<trkpt lat="49.5812097" lon="0.2158868"><ele>83</ele></trkpt>
<trkpt lat="49.581166" lon="0.2159061"><ele>83</ele></trkpt>
<trkpt lat="49.5811196" lon="0.2159042"><ele>83</ele></trkpt>
<trkpt lat="49.5810736" lon="0.215917"><ele>82</ele></trkpt>
<trkpt lat="49.5810293" lon="0.215941"><ele>82</ele></trkpt>
<trkpt lat="49.58098589999999" lon="0.2159614"><ele>82</ele></trkpt>
<trkpt lat="49.58093949999999" lon="0.2159748"><ele>82</ele></trkpt>
<trkpt lat="49.58089129999999" lon="0.2159888"><ele>82</ele></trkpt>
<trkpt lat="49.5807997" lon="0.2160247"><ele>82</ele></trkpt>
<trkpt lat="49.5807568" lon="0.2160455"><ele>82</ele></trkpt>
<trkpt lat="49.5807089" lon="0.2160471"><ele>82</ele></trkpt>
<trkpt lat="49.5806614" lon="0.2160666"><ele>82</ele></trkpt>
<trkpt lat="49.5806177" lon="0.2160459"><ele>82</ele></trkpt>
<trkpt lat="49.58060930000001" lon="0.2159701"><ele>82</ele></trkpt>
<trkpt lat="49.5806019" lon="0.2158967"><ele>82</ele></trkpt>
<trkpt lat="49.5805832" lon="0.2158263"><ele>82</ele></trkpt>
<trkpt lat="49.580566" lon="0.2157585"><ele>82</ele></trkpt>
<trkpt lat="49.5805568" lon="0.2156894"><ele>82</ele></trkpt>
<trkpt lat="49.5805507" lon="0.2156154"><ele>82</ele></trkpt>
<trkpt lat="49.5805525" lon="0.215539"><ele>81</ele></trkpt>
<trkpt lat="49.5805499" lon="0.215467"><ele>81</ele></trkpt>
<trkpt lat="49.5805403" lon="0.2153907"><ele>81</ele></trkpt>
<trkpt lat="49.5805442" lon="0.2153167"><ele>81</ele></trkpt>
<trkpt lat="49.58053200000001" lon="0.2152491"><ele>81</ele></trkpt>
<trkpt lat="49.58052370000001" lon="0.2151773"><ele>81</ele></trkpt>
<trkpt lat="49.5805479" lon="0.215114"><ele>81</ele></trkpt>
<trkpt lat="49.5805598" lon="0.2150433"><ele>81</ele></trkpt>
<trkpt lat="49.58059349999999" lon="0.2149869"><ele>81</ele></trkpt>
<trkpt lat="49.5806164" lon="0.2149261"><ele>81</ele></trkpt>
<trkpt lat="49.5806453" lon="0.2148667"><ele>81</ele></trkpt>
<trkpt lat="49.5806819" lon="0.214826"><ele>81</ele></trkpt>
<trkpt lat="49.5807116" lon="0.214769"><ele>81</ele></trkpt>
<trkpt lat="49.58074569999999" lon="0.2147191"><ele>81</ele></trkpt>
<trkpt lat="49.580784" lon="0.2146794"><ele>81</ele></trkpt>
<trkpt lat="49.58081849999999" lon="0.2146314"><ele>81</ele></trkpt>
<trkpt lat="49.58085119999999" lon="0.2145727"><ele>81</ele></trkpt>
<trkpt lat="49.580895" lon="0.2145398"><ele>81</ele></trkpt>
<trkpt lat="49.5809334" lon="0.2144986"><ele>82</ele></trkpt>
<trkpt lat="49.5809668" lon="0.2144477"><ele>82</ele></trkpt>
<trkpt lat="49.5810003" lon="0.2143985"><ele>82</ele></trkpt>
<trkpt lat="49.5810351" lon="0.2143523"><ele>82</ele></trkpt>
<trkpt lat="49.5810716" lon="0.2142989"><ele>82</ele></trkpt>
<trkpt lat="49.5811011" lon="0.2142428"><ele>82</ele></trkpt>
<trkpt lat="49.5811346" lon="0.2141942"><ele>82</ele></trkpt>
<trkpt lat="49.5811701" lon="0.2141511"><ele>82</ele></trkpt>
<trkpt lat="49.5812123" lon="0.2141159"><ele>82</ele></trkpt>
<trkpt lat="49.5812242" lon="0.2140426"><ele>82</ele></trkpt>
<trkpt lat="49.5812512" lon="0.2139813"><ele>83</ele></trkpt>
<trkpt lat="49.5812836" lon="0.2139221"><ele>82</ele></trkpt>
<trkpt lat="49.5813202" lon="0.2138801"><ele>82</ele></trkpt>
<trkpt lat="49.58136069999999" lon="0.2138415"><ele>82</ele></trkpt>
<trkpt lat="49.5813999" lon="0.2138067"><ele>83</ele></trkpt>
<trkpt lat="49.5814463" lon="0.2137777"><ele>83</ele></trkpt>
<trkpt lat="49.58149070000001" lon="0.213762"><ele>82</ele></trkpt>
<trkpt lat="49.5815345" lon="0.2137402"><ele>82</ele></trkpt>
<trkpt lat="49.58151000000001" lon="0.213675"><ele>83</ele></trkpt>
<trkpt lat="49.58147640000001" lon="0.2136203"><ele>83</ele></trkpt>
<trkpt lat="49.58145999999999" lon="0.2135484"><ele>90</ele></trkpt>
<trkpt lat="49.581473" lon="0.2134711"><ele>88</ele></trkpt>
<trkpt lat="49.5815062" lon="0.2134225"><ele>88</ele></trkpt>
<trkpt lat="49.58154780000001" lon="0.2133896"><ele>88</ele></trkpt>
<trkpt lat="49.5815729" lon="0.2133296"><ele>83</ele></trkpt>
<trkpt lat="49.5815972" lon="0.2132637"><ele>91</ele></trkpt>
<trkpt lat="49.5816208" lon="0.213202"><ele>91</ele></trkpt>
<trkpt lat="49.5816505" lon="0.2131412"><ele>88</ele></trkpt>
<trkpt lat="49.58167410000001" lon="0.2130801"><ele>91</ele></trkpt>
<trkpt lat="49.5817081" lon="0.2130263"><ele>88</ele></trkpt>
<trkpt lat="49.58175549999999" lon="0.2130213"><ele>88</ele></trkpt>
<trkpt lat="49.5818" lon="0.2130344"><ele>88</ele></trkpt>
<trkpt lat="49.5818374" lon="0.2129855"><ele>88</ele></trkpt>
<trkpt lat="49.5818802" lon="0.2129519"><ele>83</ele></trkpt>
<trkpt lat="49.58191899999999" lon="0.212901"><ele>82</ele></trkpt>
<trkpt lat="49.5819569" lon="0.2128539"><ele>81</ele></trkpt>
<trkpt lat="49.5819938" lon="0.2128117"><ele>81</ele></trkpt>
<trkpt lat="49.5820342" lon="0.2127617"><ele>81</ele></trkpt>
<trkpt lat="49.582067" lon="0.2127063"><ele>87</ele></trkpt>
<trkpt lat="49.582091" lon="0.212647"><ele>87</ele></trkpt>
<trkpt lat="49.5820968" lon="0.2125745"><ele>87</ele></trkpt>
<trkpt lat="49.582106" lon="0.212506"><ele>87</ele></trkpt>
<trkpt lat="49.5821088" lon="0.212436"><ele>87</ele></trkpt>
<trkpt lat="49.582113" lon="0.2125082"><ele>91</ele></trkpt>
<trkpt lat="49.58210209999999" lon="0.212576"><ele>87</ele></trkpt>
<trkpt lat="49.58212139999999" lon="0.2125114"><ele>88</ele></trkpt>
<trkpt lat="49.5821243" lon="0.2124347"><ele>91</ele></trkpt>
<trkpt lat="49.5821203" lon="0.2123655"><ele>91</ele></trkpt>
<trkpt lat="49.5821314" lon="0.2122918"><ele>91</ele></trkpt>
<trkpt lat="49.5821374" lon="0.2121468"><ele>91</ele></trkpt>
<trkpt lat="49.582119" lon="0.2120834"><ele>91</ele></trkpt>
<trkpt lat="49.5821451" lon="0.2120246"><ele>89</ele></trkpt>
<trkpt lat="49.58218540000001" lon="0.2119892"><ele>88</ele></trkpt>
<trkpt lat="49.5822303" lon="0.2119734"><ele>88</ele></trkpt>
<trkpt lat="49.5822767" lon="0.2119904"><ele>89</ele></trkpt>
<trkpt lat="49.5823116" lon="0.2120385"><ele>89</ele></trkpt>
<trkpt lat="49.5823326" lon="0.2121"><ele>88</ele></trkpt>
<trkpt lat="49.58235569999999" lon="0.2121635"><ele>89</ele></trkpt>
<trkpt lat="49.58237319999999" lon="0.2122364"><ele>88</ele></trkpt>
<trkpt lat="49.5823636" lon="0.2123068"><ele>85</ele></trkpt>
<trkpt lat="49.5823264" lon="0.212351"><ele>85</ele></trkpt>
<trkpt lat="49.5822937" lon="0.2124055"><ele>85</ele></trkpt>
<trkpt lat="49.5822622" lon="0.2124565"><ele>85</ele></trkpt>
<trkpt lat="49.5822275" lon="0.2125043"><ele>88</ele></trkpt>
<trkpt lat="49.5821807" lon="0.212502"><ele>88</ele></trkpt>
<trkpt lat="49.5821365" lon="0.2124841"><ele>91</ele></trkpt>
<trkpt lat="49.58211099999999" lon="0.2124205"><ele>91</ele></trkpt>
<trkpt lat="49.5821005" lon="0.2123522"><ele>91</ele></trkpt>
<trkpt lat="49.5821101" lon="0.2122826"><ele>91</ele></trkpt>
<trkpt lat="49.582131" lon="0.2122208"><ele>91</ele></trkpt>
<trkpt lat="49.582124" lon="0.2121503"><ele>91</ele></trkpt>
<trkpt lat="49.5820755" lon="0.2121389"><ele>91</ele></trkpt>
<trkpt lat="49.5820339" lon="0.2121671"><ele>91</ele></trkpt>
<trkpt lat="49.5819886" lon="0.2121916"><ele>91</ele></trkpt>
<trkpt lat="49.5819436" lon="0.2122087"><ele>91</ele></trkpt>
<trkpt lat="49.5818992" lon="0.2121965"><ele>91</ele></trkpt>
<trkpt lat="49.581857" lon="0.2122266"><ele>91</ele></trkpt>
<trkpt lat="49.5818048" lon="0.2122362"><ele>91</ele></trkpt>
<trkpt lat="49.5817578" lon="0.2122522"><ele>91</ele></trkpt>
<trkpt lat="49.5817087" lon="0.2122459"><ele>91</ele></trkpt>
<trkpt lat="49.5816605" lon="0.212253"><ele>91</ele></trkpt>
<trkpt lat="49.58161170000001" lon="0.212257"><ele>91</ele></trkpt>
<trkpt lat="49.5815668" lon="0.2122712"><ele>91</ele></trkpt>
<trkpt lat="49.5815176" lon="0.2122606"><ele>91</ele></trkpt>
<trkpt lat="49.5814702" lon="0.2122675"><ele>90</ele></trkpt>
<trkpt lat="49.5814269" lon="0.2122955"><ele>91</ele></trkpt>
<trkpt lat="49.58138569999999" lon="0.2123239"><ele>91</ele></trkpt>
<trkpt lat="49.581343" lon="0.2123001"><ele>91</ele></trkpt>
<trkpt lat="49.5813121" lon="0.2122421"><ele>91</ele></trkpt>
<trkpt lat="49.5812706" lon="0.2121779"><ele>91</ele></trkpt>
<trkpt lat="49.58123740000001" lon="0.2121222"><ele>91</ele></trkpt>
<trkpt lat="49.5812067" lon="0.2120701"><ele>92</ele></trkpt>
<trkpt lat="49.5811647" lon="0.2120412"><ele>94</ele></trkpt>
<trkpt lat="49.5811411" lon="0.211977"><ele>94</ele></trkpt>
<trkpt lat="49.58110749999999" lon="0.2119276"><ele>92</ele></trkpt>
<trkpt lat="49.5810726" lon="0.2118834"><ele>92</ele></trkpt>
<trkpt lat="49.58102269999999" lon="0.211867"><ele>95</ele></trkpt>
<trkpt lat="49.5809723" lon="0.211848"><ele>97</ele></trkpt>
<trkpt lat="49.5809254" lon="0.2118344"><ele>97</ele></trkpt>
<trkpt lat="49.5808838" lon="0.2118062"><ele>95</ele></trkpt>
<trkpt lat="49.58086970000001" lon="0.211735"><ele>97</ele></trkpt>
<trkpt lat="49.5808631" lon="0.2116651"><ele>97</ele></trkpt>
<trkpt lat="49.5808653" lon="0.2115907"><ele>97</ele></trkpt>
<trkpt lat="49.5808579" lon="0.2115185"><ele>97</ele></trkpt>
<trkpt lat="49.58084079999999" lon="0.2114507"><ele>97</ele></trkpt>
<trkpt lat="49.5808338" lon="0.2113803"><ele>97</ele></trkpt>
<trkpt lat="49.5808281" lon="0.2113081"><ele>97</ele></trkpt>
<trkpt lat="49.5808298" lon="0.2112315"><ele>99.00000000000001</ele></trkpt>
<trkpt lat="49.5808094" lon="0.2111643"><ele>99.00000000000001</ele></trkpt>
<trkpt lat="49.5808043" lon="0.211091"><ele>101</ele></trkpt>
<trkpt lat="49.5808021" lon="0.2110133"><ele>101</ele></trkpt>
<trkpt lat="49.5807993" lon="0.2109366"><ele>101</ele></trkpt>
<trkpt lat="49.5807933" lon="0.210861"><ele>101</ele></trkpt>
<trkpt lat="49.58078410000001" lon="0.2107857"><ele>101</ele></trkpt>
<trkpt lat="49.5807762" lon="0.2107079"><ele>101</ele></trkpt>
<trkpt lat="49.5807785" lon="0.2106333"><ele>101</ele></trkpt>
<trkpt lat="49.5807887" lon="0.2105608"><ele>101</ele></trkpt>
<trkpt lat="49.5807806" lon="0.2104906"><ele>101</ele></trkpt>
<trkpt lat="49.58076150000001" lon="0.2104259"><ele>101</ele></trkpt>
<trkpt lat="49.5807821" lon="0.2102838"><ele>103</ele></trkpt>
<trkpt lat="49.58080280000001" lon="0.2102136"><ele>103</ele></trkpt>
<trkpt lat="49.5808196" lon="0.2101474"><ele>98.00000000000001</ele></trkpt>
<trkpt lat="49.5808356" lon="0.2100751"><ele>98.00000000000001</ele></trkpt>
<trkpt lat="49.58084229999999" lon="0.2100032"><ele>98.00000000000001</ele></trkpt>
<trkpt lat="49.5808451" lon="0.2099276"><ele>98.00000000000001</ele></trkpt>
<trkpt lat="49.5808565" lon="0.2098578"><ele>98.00000000000001</ele></trkpt>
<trkpt lat="49.58087" lon="0.2097897"><ele>98.00000000000001</ele></trkpt>
<trkpt lat="49.5808625" lon="0.2097166"><ele>98.00000000000001</ele></trkpt>
<trkpt lat="49.58084590000001" lon="0.2096502"><ele>113</ele></trkpt>
<trkpt lat="49.58084169999999" lon="0.2095756"><ele>113</ele></trkpt>
<trkpt lat="49.58082799999999" lon="0.2095072"><ele>113</ele></trkpt>
<trkpt lat="49.5807946" lon="0.2094533"><ele>100</ele></trkpt>
<trkpt lat="49.5807625" lon="0.2093971"><ele>100</ele></trkpt>
<trkpt lat="49.580735" lon="0.2093372"><ele>99.00000000000001</ele></trkpt>
<trkpt lat="49.58078" lon="0.2093402"><ele>99.00000000000001</ele></trkpt>
<trkpt lat="49.5808172" lon="0.2093888"><ele>98.00000000000001</ele></trkpt>
<trkpt lat="49.5808513" lon="0.2094364"><ele>97</ele></trkpt>
<trkpt lat="49.5808897" lon="0.2094831"><ele>98.00000000000001</ele></trkpt>
<trkpt lat="49.5809298" lon="0.2095208"><ele>97</ele></trkpt>
<trkpt lat="49.5809668" lon="0.2095685"><ele>97</ele></trkpt>
<trkpt lat="49.58101169999999" lon="0.2095869"><ele>98.00000000000001</ele></trkpt>
<trkpt lat="49.58103819999999" lon="0.2096498"><ele>98.00000000000001</ele></trkpt>
<trkpt lat="49.5810636" lon="0.2097125"><ele>98.00000000000001</ele></trkpt>
<trkpt lat="49.58109409999999" lon="0.2097723"><ele>98.00000000000001</ele></trkpt>
<trkpt lat="49.5811255" lon="0.2098233"><ele>98.00000000000001</ele></trkpt>
<trkpt lat="49.5812066" lon="0.2098776"><ele>98.00000000000001</ele></trkpt>
<trkpt lat="49.5812429" lon="0.2099211"><ele>98.00000000000001</ele></trkpt>
<trkpt lat="49.5812813" lon="0.2099651"><ele>97</ele></trkpt>
<trkpt lat="49.5813234" lon="0.2100007"><ele>97</ele></trkpt>
<trkpt lat="49.5813668" lon="0.2100312"><ele>97</ele></trkpt>
<trkpt lat="49.58140360000001" lon="0.2100783"><ele>92</ele></trkpt>
<trkpt lat="49.5814405" lon="0.210121"><ele>95</ele></trkpt>
<trkpt lat="49.581482" lon="0.2101509"><ele>95</ele></trkpt>
<trkpt lat="49.58152359999999" lon="0.2101797"><ele>95</ele></trkpt>
<trkpt lat="49.5815524" lon="0.210233"><ele>92</ele></trkpt>
<trkpt lat="49.5815844" lon="0.2102827"><ele>92</ele></trkpt>
<trkpt lat="49.5816167" lon="0.2103411"><ele>92</ele></trkpt>
<trkpt lat="49.58164789999999" lon="0.2103954"><ele>92</ele></trkpt>
<trkpt lat="49.5816832" lon="0.2104577"><ele>92</ele></trkpt>
<trkpt lat="49.5817206" lon="0.2104978"><ele>92</ele></trkpt>
<trkpt lat="49.58176259999999" lon="0.2105374"><ele>92</ele></trkpt>
<trkpt lat="49.5818011" lon="0.2105874"><ele>92</ele></trkpt>
<trkpt lat="49.5818332" lon="0.2106434"><ele>92</ele></trkpt>
<trkpt lat="49.5818722" lon="0.2106848"><ele>92</ele></trkpt>
<trkpt lat="49.58191250000001" lon="0.2107179"><ele>91</ele></trkpt>
<trkpt lat="49.58194670000001" lon="0.2107725"><ele>92</ele></trkpt>
<trkpt lat="49.581982" lon="0.2108171"><ele>92</ele></trkpt>
<trkpt lat="49.5820214" lon="0.2108591"><ele>92</ele></trkpt>
<trkpt lat="49.58206609999999" lon="0.2108811"><ele>92</ele></trkpt>
<trkpt lat="49.5821134" lon="0.2108705"><ele>91</ele></trkpt>
<trkpt lat="49.5821552" lon="0.210836"><ele>92</ele></trkpt>
<trkpt lat="49.5821942" lon="0.2107891"><ele>92</ele></trkpt>
<trkpt lat="49.5822408" lon="0.2107797"><ele>92</ele></trkpt>
<trkpt lat="49.5822813" lon="0.2107474"><ele>92</ele></trkpt>
<trkpt lat="49.58231909999999" lon="0.2106996"><ele>92</ele></trkpt>
<trkpt lat="49.582347" lon="0.2106445"><ele>94</ele></trkpt>
<trkpt lat="49.5823617" lon="0.210576"><ele>92</ele></trkpt>
<trkpt lat="49.5823956" lon="0.21053"><ele>95</ele></trkpt>
<trkpt lat="49.5824374" lon="0.2105009"><ele>95</ele></trkpt>
<trkpt lat="49.5824715" lon="0.210448"><ele>94</ele></trkpt>
<trkpt lat="49.5824939" lon="0.2103826"><ele>94</ele></trkpt>
<trkpt lat="49.582534" lon="0.210343"><ele>96</ele></trkpt>
<trkpt lat="49.5825648" lon="0.2102833"><ele>96</ele></trkpt>
<trkpt lat="49.58260340000001" lon="0.2102322"><ele>96</ele></trkpt>
<trkpt lat="49.58264470000001" lon="0.2101847"><ele>97</ele></trkpt>
<trkpt lat="49.5826885" lon="0.2101585"><ele>98.00000000000001</ele></trkpt>
<trkpt lat="49.5827226" lon="0.2101116"><ele>98.00000000000001</ele></trkpt>
<trkpt lat="49.58276570000001" lon="0.2100803"><ele>98.00000000000001</ele></trkpt>
<trkpt lat="49.58278729999999" lon="0.2100162"><ele>98.00000000000001</ele></trkpt>
<trkpt lat="49.58282510000001" lon="0.2099755"><ele>97</ele></trkpt>
<trkpt lat="49.5828513" lon="0.2099153"><ele>98.00000000000001</ele></trkpt>
<trkpt lat="49.5828922" lon="0.2098666"><ele>98.00000000000001</ele></trkpt>
<trkpt lat="49.58292909999999" lon="0.2098217"><ele>96</ele></trkpt>
<trkpt lat="49.5829725" lon="0.2097831"><ele>96</ele></trkpt>
<trkpt lat="49.5830136" lon="0.2097479"><ele>96</ele></trkpt>
<trkpt lat="49.5830434" lon="0.2096946"><ele>96</ele></trkpt>
<trkpt lat="49.58307529999999" lon="0.2096453"><ele>96</ele></trkpt>
<trkpt lat="49.58311129999999" lon="0.2096029"><ele>96</ele></trkpt>
<trkpt lat="49.5831439" lon="0.2095477"><ele>96</ele></trkpt>
<trkpt lat="49.5831744" lon="0.2094905"><ele>96</ele></trkpt>
<trkpt lat="49.5831743" lon="0.2094197"><ele>96</ele></trkpt>
<trkpt lat="49.58322009999999" lon="0.2093915"><ele>96</ele></trkpt>
<trkpt lat="49.5832484" lon="0.2093374"><ele>96</ele></trkpt>
<trkpt lat="49.5832865" lon="0.2092966"><ele>96</ele></trkpt>
<trkpt lat="49.58332360000001" lon="0.2092515"><ele>103</ele></trkpt>
<trkpt lat="49.5833573" lon="0.2091986"><ele>103</ele></trkpt>
<trkpt lat="49.5833995" lon="0.2091597"><ele>103</ele></trkpt>
<trkpt lat="49.5834395" lon="0.2091278"><ele>103</ele></trkpt>
<trkpt lat="49.5834795" lon="0.209084"><ele>104</ele></trkpt>
<trkpt lat="49.5835228" lon="0.2090534"><ele>103</ele></trkpt>
<trkpt lat="49.5835616" lon="0.2090132"><ele>103</ele></trkpt>
<trkpt lat="49.5835999" lon="0.2089767"><ele>101</ele></trkpt>
<trkpt lat="49.5836392" lon="0.2089336"><ele>104</ele></trkpt>
<trkpt lat="49.5836786" lon="0.2088904"><ele>104</ele></trkpt>
<trkpt lat="49.5837189" lon="0.2088488"><ele>104</ele></trkpt>
<trkpt lat="49.5837547" lon="0.2088004"><ele>104</ele></trkpt>
<trkpt lat="49.5837994" lon="0.2088114"><ele>104</ele></trkpt>
<trkpt lat="49.58383550000001" lon="0.2088581"><ele>104</ele></trkpt>
<trkpt lat="49.5838702" lon="0.2089169"><ele>104</ele></trkpt>
<trkpt lat="49.5839052" lon="0.2089636"><ele>103</ele></trkpt>
<trkpt lat="49.58392140000001" lon="0.2090294"><ele>103</ele></trkpt>
<trkpt lat="49.5839264" lon="0.2090991"><ele>103</ele></trkpt>
<trkpt lat="49.58396840000001" lon="0.2091271"><ele>103</ele></trkpt>
<trkpt lat="49.58401229999999" lon="0.20916"><ele>103</ele></trkpt>
<trkpt lat="49.5840454" lon="0.2092123"><ele>103</ele></trkpt>
<trkpt lat="49.5840732" lon="0.2092705"><ele>103</ele></trkpt>
<trkpt lat="49.5841086" lon="0.2093232"><ele>103</ele></trkpt>
<trkpt lat="49.5841438" lon="0.2093697"><ele>103</ele></trkpt>
<trkpt lat="49.5841788" lon="0.2094138"><ele>103</ele></trkpt>
<trkpt lat="49.584222" lon="0.2094423"><ele>102</ele></trkpt>
<trkpt lat="49.5842632" lon="0.2094717"><ele>102</ele></trkpt>
<trkpt lat="49.5843085" lon="0.2094625"><ele>100</ele></trkpt>
<trkpt lat="49.5843631" lon="0.209437"><ele>100</ele></trkpt>
<trkpt lat="49.5843907" lon="0.2093799"><ele>101</ele></trkpt>
<trkpt lat="49.5843831" lon="0.2092363"><ele>101</ele></trkpt>
<trkpt lat="49.58437229999999" lon="0.2091653"><ele>100</ele></trkpt>
<trkpt lat="49.5843761" lon="0.2090917"><ele>99.00000000000001</ele></trkpt>
<trkpt lat="49.5844184" lon="0.2090566"><ele>99.00000000000001</ele></trkpt>
<trkpt lat="49.5844592" lon="0.2090165"><ele>99.00000000000001</ele></trkpt>
<trkpt lat="49.5845029" lon="0.2089939"><ele>99.00000000000001</ele></trkpt>
<trkpt lat="49.5845434" lon="0.2089546"><ele>99.00000000000001</ele></trkpt>
<trkpt lat="49.5845814" lon="0.2089152"><ele>97</ele></trkpt>
<trkpt lat="49.5846196" lon="0.2088648"><ele>97</ele></trkpt>
<trkpt lat="49.5846597" lon="0.2088329"><ele>97</ele></trkpt>
<trkpt lat="49.58470260000001" lon="0.2087996"><ele>97</ele></trkpt>
<trkpt lat="49.58474450000001" lon="0.208766"><ele>97</ele></trkpt>
<trkpt lat="49.58479229999999" lon="0.2087768"><ele>97</ele></trkpt>
<trkpt lat="49.5848344" lon="0.2088196"><ele>97</ele></trkpt>
<trkpt lat="49.5848623" lon="0.2088781"><ele>97</ele></trkpt>
<trkpt lat="49.5848907" lon="0.2089444"><ele>97</ele></trkpt>
<trkpt lat="49.5849185" lon="0.2090033"><ele>95</ele></trkpt>
<trkpt lat="49.58494809999999" lon="0.2090611"><ele>95</ele></trkpt>
<trkpt lat="49.5849647" lon="0.2091315"><ele>95</ele></trkpt>
<trkpt lat="49.5849816" lon="0.2091995"><ele>95</ele></trkpt>
<trkpt lat="49.5850059" lon="0.20926"><ele>95</ele></trkpt>
<trkpt lat="49.58503820000001" lon="0.209309"><ele>94</ele></trkpt>
<trkpt lat="49.5850647" lon="0.2093674"><ele>94</ele></trkpt>
<trkpt lat="49.5850963" lon="0.2094202"><ele>95</ele></trkpt>
<trkpt lat="49.58512349999999" lon="0.2094782"><ele>94</ele></trkpt>
<trkpt lat="49.5851526" lon="0.2095372"><ele>98.00000000000001</ele></trkpt>
<trkpt lat="49.5851846" lon="0.2095945"><ele>98.00000000000001</ele></trkpt>
<trkpt lat="49.58520909999999" lon="0.209659"><ele>98.00000000000001</ele></trkpt>
<trkpt lat="49.5852346" lon="0.2095979"><ele>96</ele></trkpt>
<trkpt lat="49.5852751" lon="0.2095672"><ele>96</ele></trkpt>
<trkpt lat="49.5853224" lon="0.2095332"><ele>96</ele></trkpt>
<trkpt lat="49.5853668" lon="0.2095181"><ele>96</ele></trkpt>
<trkpt lat="49.5854137" lon="0.2094973"><ele>96</ele></trkpt>
<trkpt lat="49.5854561" lon="0.2094641"><ele>96</ele></trkpt>
<trkpt lat="49.58545530000001" lon="0.2093929"><ele>94</ele></trkpt>
<trkpt lat="49.5854489" lon="0.2093128"><ele>94</ele></trkpt>
<trkpt lat="49.5854257" lon="0.2092431"><ele>94</ele></trkpt>
<trkpt lat="49.5854219" lon="0.2091692"><ele>93</ele></trkpt>
<trkpt lat="49.5854522" lon="0.2091157"><ele>98.00000000000001</ele></trkpt>
<trkpt lat="49.5854982" lon="0.2090945"><ele>98.00000000000001</ele></trkpt>
<trkpt lat="49.5855445" lon="0.2091109"><ele>94</ele></trkpt>
<trkpt lat="49.5855857" lon="0.2091406"><ele>94</ele></trkpt>
<trkpt lat="49.5856243" lon="0.2091782"><ele>93</ele></trkpt>
<trkpt lat="49.5856665" lon="0.2092089"><ele>93</ele></trkpt>
<trkpt lat="49.5857129" lon="0.209228"><ele>87</ele></trkpt>
<trkpt lat="49.585759" lon="0.2092418"><ele>87</ele></trkpt>
<trkpt lat="49.5858051" lon="0.2092573"><ele>93</ele></trkpt>
<trkpt lat="49.5858532" lon="0.2092485"><ele>88</ele></trkpt>
<trkpt lat="49.585906" lon="0.2092369"><ele>87</ele></trkpt>
<trkpt lat="49.5859545" lon="0.2092284"><ele>87</ele></trkpt>
<trkpt lat="49.58600069999999" lon="0.2092153"><ele>87</ele></trkpt>
<trkpt lat="49.5860498" lon="0.2092234"><ele>88</ele></trkpt>
<trkpt lat="49.5860951" lon="0.2092292"><ele>88</ele></trkpt>
<trkpt lat="49.58614099999999" lon="0.2092385"><ele>88</ele></trkpt>
<trkpt lat="49.586186" lon="0.2092468"><ele>90</ele></trkpt>
<trkpt lat="49.586182" lon="0.2093198"><ele>90</ele></trkpt>
<trkpt lat="49.5861828" lon="0.2093901"><ele>91</ele></trkpt>
<trkpt lat="49.5862013" lon="0.2094593"><ele>90</ele></trkpt>
<trkpt lat="49.58621769999999" lon="0.209529"><ele>90</ele></trkpt>
<trkpt lat="49.5862307" lon="0.2095985"><ele>91</ele></trkpt>
<trkpt lat="49.5862524" lon="0.2096682"><ele>91</ele></trkpt>
<trkpt lat="49.586257" lon="0.2097443"><ele>91</ele></trkpt>
<trkpt lat="49.5862678" lon="0.2098133"><ele>90</ele></trkpt>
<trkpt lat="49.5862597" lon="0.2098864"><ele>90</ele></trkpt>
<trkpt lat="49.5862383" lon="0.2099478"><ele>91</ele></trkpt>
<trkpt lat="49.586234" lon="0.210023"><ele>91</ele></trkpt>
<trkpt lat="49.586243" lon="0.210093"><ele>91</ele></trkpt>
<trkpt lat="49.5862583" lon="0.2101665"><ele>89</ele></trkpt>
<trkpt lat="49.58627809999999" lon="0.2102357"><ele>88</ele></trkpt>
<trkpt lat="49.58627220000001" lon="0.2103103"><ele>89</ele></trkpt>
<trkpt lat="49.5862565" lon="0.2103775"><ele>90</ele></trkpt>
<trkpt lat="49.5862875" lon="0.2104344"><ele>89</ele></trkpt>
<trkpt lat="49.5862993" lon="0.2105038"><ele>89</ele></trkpt>
<trkpt lat="49.5863169" lon="0.2105719"><ele>89</ele></trkpt>
<trkpt lat="49.5863534" lon="0.2106143"><ele>83</ele></trkpt>
<trkpt lat="49.5863998" lon="0.2106114"><ele>83</ele></trkpt>
<trkpt lat="49.5864417" lon="0.210572"><ele>85</ele></trkpt>
<trkpt lat="49.5864812" lon="0.2105351"><ele>86</ele></trkpt>
<trkpt lat="49.5865208" lon="0.2104978"><ele>87</ele></trkpt>
<trkpt lat="49.5865573" lon="0.2104538"><ele>87</ele></trkpt>
<trkpt lat="49.58660089999999" lon="0.2104804"><ele>87</ele></trkpt>
<trkpt lat="49.5866448" lon="0.2105001"><ele>87</ele></trkpt>
<trkpt lat="49.5866801" lon="0.2105485"><ele>87</ele></trkpt>
<trkpt lat="49.5867082" lon="0.2106143"><ele>87</ele></trkpt>
<trkpt lat="49.5867202" lon="0.2106847"><ele>87</ele></trkpt>
<trkpt lat="49.5867117" lon="0.2107597"><ele>87</ele></trkpt>
<trkpt lat="49.5867113" lon="0.2108323"><ele>87</ele></trkpt>
<trkpt lat="49.5867212" lon="0.2109118"><ele>88</ele></trkpt>
<trkpt lat="49.586738" lon="0.2109767"><ele>88</ele></trkpt>
<trkpt lat="49.5867646" lon="0.2110372"><ele>86</ele></trkpt>
<trkpt lat="49.5867663" lon="0.2111088"><ele>86</ele></trkpt>
<trkpt lat="49.5867683" lon="0.2111878"><ele>86</ele></trkpt>
<trkpt lat="49.5867623" lon="0.2112597"><ele>86</ele></trkpt>
<trkpt lat="49.5867367" lon="0.2114024"><ele>86</ele></trkpt>
<trkpt lat="49.5867152" lon="0.2114712"><ele>86</ele></trkpt>
<trkpt lat="49.5867002" lon="0.2115371"><ele>86</ele></trkpt>
<trkpt lat="49.5866813" lon="0.2116053"><ele>85</ele></trkpt>
<trkpt lat="49.5866601" lon="0.2116751"><ele>85</ele></trkpt>
<trkpt lat="49.58665030000001" lon="0.2117473"><ele>85</ele></trkpt>
<trkpt lat="49.5866325" lon="0.211816"><ele>85</ele></trkpt>
<trkpt lat="49.58660390000001" lon="0.2118708"><ele>85</ele></trkpt>
<trkpt lat="49.58657709999999" lon="0.2119306"><ele>85</ele></trkpt>
<trkpt lat="49.586603" lon="0.2119881"><ele>85</ele></trkpt>
<trkpt lat="49.5866437" lon="0.2120304"><ele>85</ele></trkpt>
<trkpt lat="49.5866789" lon="0.2120828"><ele>85</ele></trkpt>
<trkpt lat="49.5867212" lon="0.2121236"><ele>85</ele></trkpt>
<trkpt lat="49.5867567" lon="0.2121683"><ele>85</ele></trkpt>
<trkpt lat="49.586777" lon="0.2122332"><ele>85</ele></trkpt>
<trkpt lat="49.58673140000001" lon="0.2122043"><ele>85</ele></trkpt>
<trkpt lat="49.5866854" lon="0.2122068"><ele>85</ele></trkpt>
<trkpt lat="49.5866384" lon="0.2121826"><ele>85</ele></trkpt>
<trkpt lat="49.5865977" lon="0.2121512"><ele>85</ele></trkpt>
<trkpt lat="49.5865532" lon="0.2121194"><ele>85</ele></trkpt>
<trkpt lat="49.58651969999999" lon="0.2120685"><ele>85</ele></trkpt>
<trkpt lat="49.58647430000001" lon="0.2120415"><ele>85</ele></trkpt>
<trkpt lat="49.5864292" lon="0.212013"><ele>85</ele></trkpt>
<trkpt lat="49.5863827" lon="0.2120176"><ele>85</ele></trkpt>
<trkpt lat="49.5863323" lon="0.2120224"><ele>85</ele></trkpt>
<trkpt lat="49.5862867" lon="0.2120463"><ele>85</ele></trkpt>
<trkpt lat="49.5862453" lon="0.2120749"><ele>85</ele></trkpt>
<trkpt lat="49.5862023" lon="0.2120964"><ele>85</ele></trkpt>
<trkpt lat="49.5861549" lon="0.2121203"><ele>85</ele></trkpt>
<trkpt lat="49.5861085" lon="0.2121459"><ele>85</ele></trkpt>
<trkpt lat="49.58606189999999" lon="0.2121687"><ele>85</ele></trkpt>
<trkpt lat="49.58601409999999" lon="0.2121899"><ele>85</ele></trkpt>
<trkpt lat="49.5859706" lon="0.2122156"><ele>85</ele></trkpt>
<trkpt lat="49.5859328" lon="0.2122562"><ele>85</ele></trkpt>
<trkpt lat="49.5858966" lon="0.2123024"><ele>85</ele></trkpt>
<trkpt lat="49.58585810000001" lon="0.2123396"><ele>85</ele></trkpt>
<trkpt lat="49.5858173" lon="0.2123801"><ele>86</ele></trkpt>
<trkpt lat="49.58577220000001" lon="0.2124058"><ele>86</ele></trkpt>
<trkpt lat="49.58572220000001" lon="0.212424"><ele>85</ele></trkpt>
<trkpt lat="49.5856765" lon="0.2124438"><ele>85</ele></trkpt>
<trkpt lat="49.5856444" lon="0.2124977"><ele>85</ele></trkpt>
<trkpt lat="49.5855996" lon="0.2124846"><ele>83</ele></trkpt>
<trkpt lat="49.5855564" lon="0.2125069"><ele>85</ele></trkpt>
<trkpt lat="49.5855241" lon="0.2125574"><ele>85</ele></trkpt>
<trkpt lat="49.5854769" lon="0.2125614"><ele>82</ele></trkpt>
<trkpt lat="49.5854358" lon="0.21259"><ele>86</ele></trkpt>
<trkpt lat="49.58539399999999" lon="0.2126323"><ele>86</ele></trkpt>
<trkpt lat="49.58535120000001" lon="0.2126625"><ele>86</ele></trkpt>
<trkpt lat="49.5853101" lon="0.2126958"><ele>86</ele></trkpt>
<trkpt lat="49.5852658" lon="0.2127177"><ele>82</ele></trkpt>
<trkpt lat="49.5852234" lon="0.2127411"><ele>83</ele></trkpt>
<trkpt lat="49.5851808" lon="0.2127738"><ele>83</ele></trkpt>
<trkpt lat="49.5851377" lon="0.212816"><ele>84</ele></trkpt>
<trkpt lat="49.5850987" lon="0.212857"><ele>84</ele></trkpt>
<trkpt lat="49.5850627" lon="0.2128993"><ele>96</ele></trkpt>
<trkpt lat="49.5850251" lon="0.2129459"><ele>96</ele></trkpt>
<trkpt lat="49.584985" lon="0.2129834"><ele>96</ele></trkpt>
<trkpt lat="49.5849418" lon="0.2130107"><ele>96</ele></trkpt>
<trkpt lat="49.5849046" lon="0.2130661"><ele>96</ele></trkpt>
<trkpt lat="49.5848733" lon="0.213118"><ele>83</ele></trkpt>
<trkpt lat="49.5848392" lon="0.213173"><ele>82</ele></trkpt>
<trkpt lat="49.5848048" lon="0.2132215"><ele>82</ele></trkpt>
<trkpt lat="49.584772" lon="0.2132731"><ele>82</ele></trkpt>
<trkpt lat="49.5847387" lon="0.2133298"><ele>82</ele></trkpt>
<trkpt lat="49.5847035" lon="0.2133762"><ele>83</ele></trkpt>
<trkpt lat="49.5846671" lon="0.213417"><ele>82</ele></trkpt>
<trkpt lat="49.584628" lon="0.2134518"><ele>83</ele></trkpt>
<trkpt lat="49.5845909" lon="0.2134959"><ele>82</ele></trkpt>
<trkpt lat="49.5845496" lon="0.213524"><ele>82</ele></trkpt>
<trkpt lat="49.58452220000001" lon="0.2135839"><ele>84</ele></trkpt>
<trkpt lat="49.5844745" lon="0.2136123"><ele>83</ele></trkpt>
<trkpt lat="49.5844259" lon="0.213626"><ele>83</ele></trkpt>
<trkpt lat="49.5843785" lon="0.2136264"><ele>82</ele></trkpt>
<trkpt lat="49.584333" lon="0.2136218"><ele>81</ele></trkpt>
<trkpt lat="49.5842824" lon="0.2136293"><ele>81</ele></trkpt>
<trkpt lat="49.5842335" lon="0.2136286"><ele>81</ele></trkpt>
<trkpt lat="49.5841879" lon="0.213637"><ele>81</ele></trkpt>
<trkpt lat="49.58414140000001" lon="0.2136311"><ele>81</ele></trkpt>
<trkpt lat="49.5840964" lon="0.2136339"><ele>81</ele></trkpt>
<trkpt lat="49.5840502" lon="0.2136327"><ele>82</ele></trkpt>
<trkpt lat="49.5840051" lon="0.2136309"><ele>83</ele></trkpt>
<trkpt lat="49.58395860000001" lon="0.2136385"><ele>83</ele></trkpt>
<trkpt lat="49.5839148" lon="0.2136592"><ele>84</ele></trkpt>
<trkpt lat="49.5838708" lon="0.2136775"><ele>84</ele></trkpt>
<trkpt lat="49.5838234" lon="0.2136959"><ele>83</ele></trkpt>
<trkpt lat="49.5837763" lon="0.2137232"><ele>84</ele></trkpt>
<trkpt lat="49.5837374" lon="0.2137594"><ele>84</ele></trkpt>
<trkpt lat="49.5836976" lon="0.213799"><ele>83</ele></trkpt>
<trkpt lat="49.5836528" lon="0.2138345"><ele>83</ele></trkpt>
<trkpt lat="49.5836094" lon="0.2138627"><ele>83</ele></trkpt>
<trkpt lat="49.5835642" lon="0.2138882"><ele>83</ele></trkpt>
<trkpt lat="49.58351969999999" lon="0.2139041"><ele>83</ele></trkpt>
<trkpt lat="49.58348920000001" lon="0.2139552"><ele>83</ele></trkpt>
<trkpt lat="49.583456" lon="0.2140022"><ele>83</ele></trkpt>
<trkpt lat="49.58341659999999" lon="0.2140443"><ele>83</ele></trkpt>
<trkpt lat="49.583382" lon="0.2140906"><ele>83</ele></trkpt>
<trkpt lat="49.5833457" lon="0.2141354"><ele>83</ele></trkpt>
<trkpt lat="49.5833094" lon="0.2141887"><ele>83</ele></trkpt>
<trkpt lat="49.58327600000001" lon="0.2142353"><ele>83</ele></trkpt>
</trkseg></trk>
</gpx>